{"type": "FeatureCollection", "features": [ {"type": "Feature", "properties": {"norad_id": 34572, "name": "COSMOS 2251 DEB", "group": "cosmos-2251-debris", "lat": 3.416989280217141, "lon": -90.3196096685291, "alt_km": 684.6953998401932, "timestamp": "2025-12-25T22:42:17.407774+00:00", "meta": {"OBJECT_NAME": "COSMOS 2251 DEB", "OBJECT_ID": "1993-036VJ", "EPOCH": "2025-12-24T06:18:12.267936", "MEAN_MOTION": 14.50228885, "ECCENTRICITY": 0.00614008, "INCLINATION": 74.0107, "RA_OF_ASC_NODE": 93.8275, "ARG_OF_PERICENTER": 165.5586, "MEAN_ANOMALY": 225.3704, "EPHEMERIS_TYPE": 0, "CLASSIFICATION_TYPE": "U", "NORAD_CAT_ID": 34572, "ELEMENT_SET_NO": 999, "REV_AT_EPOCH": 87545, "BSTAR": 0.0025670587, "MEAN_MOTION_DOT": 0.00010221, "MEAN_MOTION_DDOT": 0}, "tle": {"line1": "1 34572U 93036VJ  25358.26264199  .00010221  00000+0  25671-2 0  9992", "line2": "2 34572  74.0107  93.8275 0061400 165.5586 225.3704 14.50228885875458"}}, "geometry": {"type": "Point", "coordinates": [-90.3196096685291, 3.416989280217141]}}, {"type": "Feature", "properties": {"norad_id": 34574, "name": "COSMOS 2251 DEB", "group": "cosmos-2251-debris", "lat": -40.20818419730705, "lon": 3.5771973426149057, "alt_km": 653.4985711646186, "timestamp": "2025-12-25T22:42:17.407784+00:00", "meta": {"OBJECT_NAME": "COSMOS 2251 DEB", "OBJECT_ID": "1993-036VL", "EPOCH": "2025-12-25T12:00:04.317408", "MEAN_MOTION": 14.7074081, "ECCENTRICITY": 0.006727, "INCLINATION": 74.0691, "RA_OF_ASC_NODE": 18.4128, "ARG_OF_PERICENTER": 35.3781, "MEAN_ANOMALY": 82.9263, "EPHEMERIS_TYPE": 0, "CLASSIFICATION_TYPE": "U", "NORAD_CAT_ID": 34574, "ELEMENT_SET_NO": 999, "REV_AT_EPOCH": 88966, "BSTAR": 0.0010115, "MEAN_MOTION_DOT": 6.363e-05, "MEAN_MOTION_DDOT": 0}, "tle": {"line1": "1 34574U 93036VL  25359.50004997  .00006363  00000+0  10115-2 0  9999", "line2": "2 34574  74.0691  18.4128 0067270  35.3781  82.9263 14.70740810889664"}}, "geometry": {"type": "Point", "coordinates": [3.5771973426149057, -40.20818419730705]}}, {"type": "Feature", "properties": {"norad_id": 34576, "name": "COSMOS 2251 DEB", "group": "cosmos-2251-debris", "lat": -67.38566438231338, "lon": 69.76477521045013, "alt_km": 709.7847527722461, "timestamp": "2025-12-25T22:42:17.407794+00:00", "meta": {"OBJECT_NAME": "COSMOS 2251 DEB", "OBJECT_ID": "1993-036VN", "EPOCH": "2025-12-24T14:06:21.885120", "MEAN_MOTION": 14.5550624, "ECCENTRICITY": 0.00082869, "INCLINATION": 74.0348, "RA_OF_ASC_NODE": 115.75, "ARG_OF_PERICENTER": 253.9656, "MEAN_ANOMALY": 117.9687, "EPHEMERIS_TYPE": 0, "CLASSIFICATION_TYPE": "U", "NORAD_CAT_ID": 34576, "ELEMENT_SET_NO": 999, "REV_AT_EPOCH": 88639, "BSTAR": 0.00092219532, "MEAN_MOTION_DOT": 3.99e-05, "MEAN_MOTION_DDOT": 0}, "tle": {"line1": "1 34576U 93036VN  25358.58775330  .00003990  00000+0  92220-3 0  9995", "line2": "2 34576  74.0348 115.7500 0008286 253.9656 117.9687 14.55506240886397"}}, "geometry": {"type": "Point", "coordinates": [69.76477521045013, -67.38566438231338]}}, {"type": "Feature", "properties": {"norad_id": 34579, "name": "COSMOS 2251 DEB", "group": "cosmos-2251-debris", "lat": 21.726009918023504, "lon": -154.15085823082754, "alt_km": 749.1151371789811, "timestamp": "2025-12-25T22:42:17.407804+00:00", "meta": {"OBJECT_NAME": "COSMOS 2251 DEB", "OBJECT_ID": "1993-036VR", "EPOCH": "2025-12-25T18:11:55.574304", "MEAN_MOTION": 14.4534212, "ECCENTRICITY": 0.0027487, "INCLINATION": 74.0513, "RA_OF_ASC_NODE": 199.6556, "ARG_OF_PERICENTER": 266.337, "MEAN_ANOMALY": 219.6042, "EPHEMERIS_TYPE": 0, "CLASSIFICATION_TYPE": "U", "NORAD_CAT_ID": 34579, "ELEMENT_SET_NO": 999, "REV_AT_EPOCH": 88362, "BSTAR": 0.00036927, "MEAN_MOTION_DOT": 1.277e-05, "MEAN_MOTION_DDOT": 0}, "tle": {"line1": "1 34579U 93036VR  25359.75828211  .00001277  00000+0  36927-3 0  9993", "line2": "2 34579  74.0513 199.6556 0027487 266.3370 219.6042 14.45342120883623"}}, "geometry": {"type": "Point", "coordinates": [-154.15085823082754, 21.726009918023504]}}, {"type": "Feature", "properties": {"norad_id": 34582, "name": "COSMOS 2251 DEB", "group": "cosmos-2251-debris", "lat": -44.55779425688572, "lon": 84.20814929361465, "alt_km": 774.9839913031874, "timestamp": "2025-12-25T22:42:17.407814+00:00", "meta": {"OBJECT_NAME": "COSMOS 2251 DEB", "OBJECT_ID": "1993-036VU", "EPOCH": "2025-12-25T18:19:42.129120", "MEAN_MOTION": 14.43387962, "ECCENTRICITY": 0.0048531, "INCLINATION": 74.0188, "RA_OF_ASC_NODE": 248.1564, "ARG_OF_PERICENTER": 355.4266, "MEAN_ANOMALY": 4.644, "EPHEMERIS_TYPE": 0, "CLASSIFICATION_TYPE": "U", "NORAD_CAT_ID": 34582, "ELEMENT_SET_NO": 999, "REV_AT_EPOCH": 88135, "BSTAR": 0.00067898, "MEAN_MOTION_DOT": 2.298e-05, "MEAN_MOTION_DDOT": 0}, "tle": {"line1": "1 34582U 93036VU  25359.76368205  .00002298  00000+0  67898-3 0  9995", "line2": "2 34582  74.0188 248.1564 0048531 355.4266   4.6440 14.43387962881354"}}, "geometry": {"type": "Point", "coordinates": [84.20814929361465, -44.55779425688572]}}, {"type": "Feature", "properties": {"norad_id": 34588, "name": "COSMOS 2251 DEB", "group": "cosmos-2251-debris", "lat": -37.584919115280364, "lon": 76.50685449561398, "alt_km": 754.3459063828377, "timestamp": "2025-12-25T22:42:17.407824+00:00", "meta": {"OBJECT_NAME": "COSMOS 2251 DEB", "OBJECT_ID": "1993-036WA", "EPOCH": "2025-12-25T18:38:58.498080", "MEAN_MOTION": 14.42058013, "ECCENTRICITY": 0.0019299, "INCLINATION": 74.0424, "RA_OF_ASC_NODE": 244.0973, "ARG_OF_PERICENTER": 295.4597, "MEAN_ANOMALY": 127.2044, "EPHEMERIS_TYPE": 0, "CLASSIFICATION_TYPE": "U", "NORAD_CAT_ID": 34588, "ELEMENT_SET_NO": 999, "REV_AT_EPOCH": 88138, "BSTAR": 0.00040233, "MEAN_MOTION_DOT": 1.298e-05, "MEAN_MOTION_DDOT": 0}, "tle": {"line1": "1 34588U 93036WA  25359.77706595  .00001298  00000+0  40233-3 0  9993", "line2": "2 34588  74.0424 244.0973 0019299 295.4597 127.2044 14.42058013881387"}}, "geometry": {"type": "Point", "coordinates": [76.50685449561398, -37.584919115280364]}}, {"type": "Feature", "properties": {"norad_id": 34589, "name": "COSMOS 2251 DEB", "group": "cosmos-2251-debris", "lat": -70.15438759238991, "lon": -19.494818732778054, "alt_km": 833.7255144678802, "timestamp": "2025-12-25T22:42:17.407834+00:00", "meta": {"OBJECT_NAME": "COSMOS 2251 DEB", "OBJECT_ID": "1993-036WB", "EPOCH": "2025-12-25T11:14:58.253856", "MEAN_MOTION": 13.86068868, "ECCENTRICITY": 0.0252572, "INCLINATION": 73.9253, "RA_OF_ASC_NODE": 34.3419, "ARG_OF_PERICENTER": 335.1465, "MEAN_ANOMALY": 88.1559, "EPHEMERIS_TYPE": 0, "CLASSIFICATION_TYPE": "U", "NORAD_CAT_ID": 34589, "ELEMENT_SET_NO": 999, "REV_AT_EPOCH": 84888, "BSTAR": 0.00047786, "MEAN_MOTION_DOT": 6.82e-06, "MEAN_MOTION_DDOT": 0}, "tle": {"line1": "1 34589U 93036WB  25359.46872979  .00000682  00000+0  47786-3 0  9996", "line2": "2 34589  73.9253  34.3419 0252572 335.1465  88.1559 13.86068868848880"}}, "geometry": {"type": "Point", "coordinates": [-19.494818732778054, -70.15438759238991]}}, {"type": "Feature", "properties": {"norad_id": 34590, "name": "COSMOS 2251 DEB", "group": "cosmos-2251-debris", "lat": -61.12196329325829, "lon": -93.67746788915355, "alt_km": 746.8114213566823, "timestamp": "2025-12-25T22:42:17.407844+00:00", "meta": {"OBJECT_NAME": "COSMOS 2251 DEB", "OBJECT_ID": "1993-036WC", "EPOCH": "2025-12-24T20:54:05.844672", "MEAN_MOTION": 14.54839692, "ECCENTRICITY": 0.00680797, "INCLINATION": 74.0446, "RA_OF_ASC_NODE": 299.6021, "ARG_OF_PERICENTER": 65.6642, "MEAN_ANOMALY": 0.7564, "EPHEMERIS_TYPE": 0, "CLASSIFICATION_TYPE": "U", "NORAD_CAT_ID": 34590, "ELEMENT_SET_NO": 999, "REV_AT_EPOCH": 89297, "BSTAR": 0.0001390482, "MEAN_MOTION_DOT": 5.86e-06, "MEAN_MOTION_DDOT": 0}, "tle": {"line1": "1 34590U 93036WC  25358.87090098  .00000586  00000+0  13905-3 0  9995", "line2": "2 34590  74.0446 299.6021 0068079  65.6642   0.7564 14.54839692892974"}}, "geometry": {"type": "Point", "coordinates": [-93.67746788915355, -61.12196329325829]}}, {"type": "Feature", "properties": {"norad_id": 34609, "name": "COSMOS 2251 DEB", "group": "cosmos-2251-debris", "lat": -59.17899852671444, "lon": 53.285204803051805, "alt_km": 721.1580971687235, "timestamp": "2025-12-25T22:42:17.407855+00:00", "meta": {"OBJECT_NAME": "COSMOS 2251 DEB", "OBJECT_ID": "1993-036WE", "EPOCH": "2025-12-24T00:34:30.192384", "MEAN_MOTION": 14.2183063, "ECCENTRICITY": 0.01457677, "INCLINATION": 73.7329, "RA_OF_ASC_NODE": 86.098, "ARG_OF_PERICENTER": 303.8546, "MEAN_ANOMALY": 238.3232, "EPHEMERIS_TYPE": 0, "CLASSIFICATION_TYPE": "U", "NORAD_CAT_ID": 34609, "ELEMENT_SET_NO": 999, "REV_AT_EPOCH": 86792, "BSTAR": 0.00072342659, "MEAN_MOTION_DOT": 1.747e-05, "MEAN_MOTION_DDOT": 0}, "tle": {"line1": "1 34609U 93036WE  25358.02396056  .00001747  00000+0  72343-3 0  9997", "line2": "2 34609  73.7329  86.0980 0145767 303.8546 238.3232 14.21830630867928"}}, "geometry": {"type": "Point", "coordinates": [53.285204803051805, -59.17899852671444]}}, {"type": "Feature", "properties": {"norad_id": 34610, "name": "COSMOS 2251 DEB", "group": "cosmos-2251-debris", "lat": 52.35300669225588, "lon": 37.34783817619881, "alt_km": 923.0415924299114, "timestamp": "2025-12-25T22:42:17.407865+00:00", "meta": {"OBJECT_NAME": "COSMOS 2251 DEB", "OBJECT_ID": "1993-036WF", "EPOCH": "2025-12-24T23:56:39.229728", "MEAN_MOTION": 14.07136611, "ECCENTRICITY": 0.01807447, "INCLINATION": 74.0166, "RA_OF_ASC_NODE": 240.8215, "ARG_OF_PERICENTER": 8.614, "MEAN_ANOMALY": 351.8026, "EPHEMERIS_TYPE": 0, "CLASSIFICATION_TYPE": "U", "NORAD_CAT_ID": 34610, "ELEMENT_SET_NO": 999, "REV_AT_EPOCH": 85732, "BSTAR": 0.0020375522, "MEAN_MOTION_DOT": 3.934e-05, "MEAN_MOTION_DDOT": 0}, "tle": {"line1": "1 34610U 93036WF  25358.99767627  .00003934  00000+0  20376-2 0  9999", "line2": "2 34610  74.0166 240.8215 0180744   8.6140 351.8026 14.07136611857325"}}, "geometry": {"type": "Point", "coordinates": [37.34783817619881, 52.35300669225588]}}]}